OBJECT_NAME,OBJECT_ID,EPOCH,MEAN_MOTION,ECCENTRICITY,INCLINATION,RA_OF_ASC_NODE,ARG_OF_PERICENTER,MEAN_ANOMALY,EPHEMERIS_TYPE,CLASSIFICATION_TYPE,NORAD_CAT_ID,ELEMENT_SET_NO,REV_AT_EPOCH,BSTAR,MEAN_MOTION_DOT,MEAN_MOTION_DDOT
DMSP 5D-3 F16 (USA 172),2003-048A,2026-06-18T23:52:01.289568,14.14483135,.00078257,98.9889,193.8348,135.6029,238.2244,0,U,28054,999,16974,-.112806E-6,-.46E-6,0
METEOSAT-9 (MSG-2),2005-049B,2026-06-18T19:58:55.513344,1.00272994,.00017165,9.3658,54.1535,345.3182,212.9689,0,U,28912,999,701,0,.114E-5,0
DMSP 5D-3 F17 (USA 191),2006-050A,2026-06-18T22:29:58.162272,14.14993114,.00111112,98.7378,176.4718,54.8521,305.3693,0,U,29522,999,1267,.13718536E-4,-.17E-6,0
FENGYUN 3A,2008-026A,2026-06-18T17:44:04.050528,14.19571456,.00096411,98.6883,110.5431,119.6023,240.6115,0,U,32958,999,93562,.50314536E-4,.63E-6,0
GOES 14,2009-033A,2026-06-18T22:08:51.547776,1.00110377,.00018373,1.6955,83.0209,12.3121,284.8605,0,U,35491,999,660,0,-.304E-5,0
DMSP 5D-3 F18 (USA 210),2009-057A,2026-06-18T21:48:55.351872,14.14897701,.00099301,98.9038,150.6743,244.0860,115.9290,0,U,35951,999,85983,.13913593E-3,.224E-5,0
EWS-G2 (GOES 15),2010-008A,2026-06-18T21:46:46.165728,1.00266396,.00048524,1.2832,82.8190,42.1613,172.5356,0,U,36411,999,5965,0,.13E-6,0
COMS 1,2010-032A,2026-06-18T21:28:31.158048,0.99162860,.00115865,4.8103,75.3350,11.9410,208.6105,0,U,36744,999,5110,0,.77E-6,0
FENGYUN 3B,2010-059A,2026-06-19T00:16:38.159328,14.14840544,.0022038,98.9612,216.0341,178.7986,295.9154,0,U,37214,999,80768,-.67842001E-4,-.176E-5,0
SUOMI NPP,2011-061A,2026-06-18T23:04:52.851648,14.19517700,.00014364,98.7953,110.8257,2.4901,357.6282,0,U,37849,999,75869,.47304224E-4,.55E-6,0
METEOSAT-10 (MSG-3),2012-035B,2026-06-18T21:28:45.640416,1.00266219,.00014272,4.6766,61.0163,0.8566,167.7502,0,U,38552,999,5087,0,-.14E-6,0
METOP-B,2012-049A,2026-06-18T22:47:08.817504,14.21433171,.00021249,98.6504,221.4135,15.0769,345.0471,0,U,38771,999,71351,.57164275E-4,.82E-6,0
INSAT-3D,2013-038B,2026-06-18T22:05:36.859200,1.00268467,.0000593,1.9315,82.5182,320.8971,324.6311,0,U,39216,999,4709,0,-.346E-5,0
FENGYUN 3C,2013-052A,2026-06-18T22:50:52.683360,14.15755470,.0015153,98.4987,143.7458,22.7602,337.4241,0,U,39260,999,65881,.62446091E-4,.81E-6,0
METEOR-M 2,2014-037A,2026-06-18T23:25:04.220256,14.21462439,.00066723,98.5117,145.6511,40.0106,320.1562,0,U,40069,999,61957,.10498042E-3,.188E-5,0
HIMAWARI-8,2014-060A,2026-06-18T22:08:44.060352,1.00271141,.00010828,0.0130,40.6983,51.0885,288.2169,0,U,40267,999,4277,0,-.282E-5,0
FENGYUN 2G,2014-090A,2026-06-18T18:31:45.738624,1.00271330,.00039323,5.6437,72.7972,158.4572,53.3769,0,U,40367,999,4201,0,-.311E-5,0
METEOSAT-11 (MSG-4),2015-034A,2026-06-18T21:31:22.888416,1.00263623,.00024365,3.2053,71.0958,345.9937,182.5107,0,U,40732,999,723,0,.55E-6,0
ELEKTRO-L 2,2015-074A,2026-06-18T00:52:34.633344,1.00270556,.00009025,6.6975,70.5132,256.1704,298.2263,0,U,41105,999,3851,0,-.126E-5,0
SENTINEL-3A,2016-011A,2026-06-18T21:35:31.465536,14.26733085,.00014167,98.6249,237.2590,100.6041,259.5300,0,U,41335,999,53830,.55274059E-4,.9E-6,0
INSAT-3DR,2016-054A,2026-06-18T21:49:45.878592,1.00271095,.00105105,0.1111,86.2225,187.5525,34.7747,0,U,41752,999,3583,0,-.83E-6,0
HIMAWARI-9,2016-064A,2026-06-18T22:08:44.060352,1.00270262,.00009914,0.0164,302.7484,186.9714,250.3746,0,U,41836,999,3522,0,-.281E-5,0
GOES 16,2016-071A,2026-06-18T20:58:50.556000,1.00271194,.00002608,0.3465,85.5116,324.3444,67.2656,0,U,41866,999,3512,0,-.97E-6,0
FENGYUN 4A,2016-077A,2026-06-18T23:46:40.054368,1.00267559,.00086912,2.3279,80.2563,153.6206,153.7461,0,U,41882,999,3494,0,-.364E-5,0
CYGFM05,2016-078A,2026-06-18T21:51:44.127360,15.56735543,.00071687,34.9561,249.1747,168.2991,191.7901,0,U,41884,999,52902,.24314567E-3,.17972E-3,0
CYGFM04,2016-078B,2026-06-18T19:29:37.480704,15.61586926,.00068704,34.9309,217.4364,209.8486,150.1848,0,U,41885,999,52925,.2558725E-3,.22778E-3,0
CYGFM02,2016-078C,2026-06-18T19:26:07.299744,15.64587852,.0007959,34.9390,211.9405,211.0645,148.9612,0,U,41886,999,52942,.26400695E-3,.26479E-3,0
CYGFM01,2016-078D,2026-06-18T13:52:52.845024,15.57403870,.0006857,34.9392,252.4239,158.7046,201.3964,0,U,41887,999,52892,.26213E-3,.19875E-3,0
CYGFM08,2016-078E,2026-06-18T12:51:05.719104,15.60079570,.0008477,34.9419,232.2513,189.9970,170.0587,0,U,41888,999,52918,.25781E-3,.2166E-3,0
CYGFM07,2016-078G,2026-06-18T13:24:16.643808,15.60178394,.0007269,34.9432,220.4381,206.5978,153.4375,0,U,41890,999,52921,.25688E-3,.21654E-3,0
CYGFM03,2016-078H,2026-06-18T12:42:32.186016,15.60171185,.000671,34.9387,222.5679,194.5255,165.5278,0,U,41891,999,52918,.25707E-3,.2166E-3,0
