DMSP 5D-3 F16 (USA 172) 
1 28054U 03048A   26169.99445937 -.00000046  00000+0 -11281-6 0  9998
2 28054  98.9889 193.8348 0007825 135.6029 238.2244 14.14483135169742
METEOSAT-9 (MSG-2)      
1 28912U 05049B   26169.83258696  .00000114  00000+0  00000+0 0  9995
2 28912   9.3658  54.1535 0001716 345.3182 212.9689  1.00272994  7018
DMSP 5D-3 F17 (USA 191) 
1 29522U 06050A   26169.93747873 -.00000017  00000+0  13719-4 0  9996
2 29522  98.7378 176.4718 0011111  54.8521 305.3693 14.14993114 12670
FENGYUN 3A              
1 32958U 08026A   26169.73893577  .00000063  00000+0  50315-4 0  9992
2 32958  98.6883 110.5431 0009641 119.6023 240.6115 14.19571456935625
GOES 14                 
1 35491U 09033A   26169.92281884 -.00000304  00000+0  00000+0 0  9999
2 35491   1.6955  83.0209 0001837  12.3121 284.8605  1.00110377  6606
DMSP 5D-3 F18 (USA 210) 
1 35951U 09057A   26169.90897398  .00000224  00000+0  13914-3 0  9999
2 35951  98.9038 150.6743 0009930 244.0860 115.9290 14.14897701859835
EWS-G2 (GOES 15)        
1 36411U 10008A   26169.90747877  .00000013  00000+0  00000+0 0  9999
2 36411   1.2832  82.8190 0004852  42.1613 172.5356  1.00266396 59654
COMS 1                  
1 36744U 10032A   26169.89480507  .00000077  00000+0  00000+0 0  9997
2 36744   4.8103  75.3350 0011586  11.9410 208.6105  0.99162860 51102
FENGYUN 3B              
1 37214U 10059A   26170.01155277 -.00000176  00000+0 -67842-4 0  9992
2 37214  98.9612 216.0341 0022038 178.7986 295.9154 14.14840544807681
SUOMI NPP               
1 37849U 11061A   26169.96172282  .00000055  00000+0  47304-4 0  9992
2 37849  98.7953 110.8257 0001436   2.4901 357.6282 14.19517700758691
METEOSAT-10 (MSG-3)     
1 38552U 12035B   26169.89497269 -.00000014  00000+0  00000+0 0  9996
2 38552   4.6766  61.0163 0001427   0.8566 167.7502  1.00266219 50875
METOP-B                 
1 38771U 12049A   26169.94940761  .00000082  00000+0  57164-4 0  9992
2 38771  98.6504 221.4135 0002124  15.0769 345.0471 14.21433171713513
INSAT-3D                
1 39216U 13038B   26169.92056550 -.00000346  00000+0  00000+0 0  9994
2 39216   1.9315  82.5182 0000593 320.8971 324.6311  1.00268467 47099
FENGYUN 3C              
1 39260U 13052A   26169.95199865  .00000081  00000+0  62446-4 0  9991
2 39260  98.4987 143.7458 0015153  22.7602 337.4241 14.15755470658814
METEOR-M 2              
1 40069U 14037A   26169.97574329  .00000188  00000+0  10498-3 0  9995
2 40069  98.5117 145.6511 0006672  40.0106 320.1562 14.21462439619570
HIMAWARI-8              
1 40267U 14060A   26169.92273218 -.00000282  00000+0  00000+0 0  9999
2 40267   0.0130  40.6983 0001082  51.0885 288.2169  1.00271141 42776
FENGYUN 2G              
1 40367U 14090A   26169.77205716 -.00000311  00000+0  00000+0 0  9997
2 40367   5.6437  72.7972 0003932 158.4572  53.3769  1.00271330 42017
METEOSAT-11 (MSG-4)     
1 40732U 15034A   26169.89679269  .00000055  00000+0  00000+0 0  9997
2 40732   3.2053  71.0958 0002436 345.9937 182.5107  1.00263623  7235
ELEKTRO-L 2             
1 41105U 15074A   26169.03651196 -.00000126  00000+0  00000+0 0  9991
2 41105   6.6975  70.5132 0000902 256.1704 298.2263  1.00270556 38515
SENTINEL-3A             
1 41335U 16011A   26169.89966974  .00000090  00000+0  55274-4 0  9992
2 41335  98.6249 237.2590 0001416 100.6041 259.5300 14.26733085538300
INSAT-3DR               
1 41752U 16054A   26169.90955878 -.00000083  00000+0  00000+0 0  9990
2 41752   0.1111  86.2225 0010510 187.5525  34.7747  1.00271095 35836
HIMAWARI-9              
1 41836U 16064A   26169.92273218 -.00000281  00000+0  00000+0 0  9997
2 41836   0.0164 302.7484 0000991 186.9714 250.3746  1.00270262 35227
GOES 16                 
1 41866U 16071A   26169.87419625 -.00000097  00000+0  00000+0 0  9991
2 41866   0.3465  85.5116 0000260 324.3444  67.2656  1.00271194 35121
FENGYUN 4A              
1 41882U 16077A   26169.99074137 -.00000364  00000+0  00000+0 0  9990
2 41882   2.3279  80.2563 0008691 153.6206 153.7461  1.00267559 34941
CYGFM05                 
1 41884U 16078A   26169.91092740  .00017972  00000+0  24315-3 0  9996
2 41884  34.9561 249.1747 0007168 168.2991 191.7901 15.56735543529027
CYGFM04                 
1 41885U 16078B   26169.81223936  .00022778  00000+0  25587-3 0  9991
2 41885  34.9309 217.4364 0006870 209.8486 150.1848 15.61586926529250
CYGFM02                 
1 41886U 16078C   26169.80980671  .00026479  00000+0  26401-3 0  9995
2 41886  34.9390 211.9405 0007959 211.0645 148.9612 15.64587852529422
CYGFM01                 
1 41887U 16078D   26169.57838941  .00019875  00000+0  26213-3 0  9995
2 41887  34.9392 252.4239 0006857 158.7046 201.3964 15.57403870528925
CYGFM08                 
1 41888U 16078E   26169.53548286  .00021660  00000+0  25781-3 0  9996
2 41888  34.9419 232.2513 0008477 189.9970 170.0587 15.60079570529181
CYGFM07                 
1 41890U 16078G   26169.55852597  .00021654  00000+0  25688-3 0  9993
2 41890  34.9432 220.4381 0007269 206.5978 153.4375 15.60178394529211
CYGFM03                 
1 41891U 16078H   26169.52953919  .00021660  00000+0  25707-3 0  9990
2 41891  34.9387 222.5679 0006710 194.5255 165.5278 15.60171185529181
